{"cuisine": "American (New), Lounges, Pizza", "star_rating": 3.5, "transactions": "delivery, pickup", "restaurant_id": "BOu8G-QQMOKZRjw79HM-lQ", "longitude": -71.1044936, "num_reviews": 502, "restaurant_name": "Bella Luna Restaurant & The Milky Way Lounge", "latitude": 42.3145811, "is_closed": 1, "zip_code": "02130"}
{"cuisine": "American (New), Pubs, Breakfast & Brunch", "star_rating": 3.0, "transactions": "delivery", "restaurant_id": "VTvZpoW24og2k2t5RRp0Vw", "longitude": -71.0842514038086, "num_reviews": 281, "restaurant_name": "Lir Irish Pub & Restaurant", "latitude": 42.3485069274902, "is_closed": 1, "zip_code": "02115"}
{"cuisine": "Bars, American (Traditional), American (New)", "star_rating": 3.5, "transactions": "delivery", "restaurant_id": "yJZkJr3Bb5XqqoRDa22o5A", "longitude": -71.0843353271484, "num_reviews": 1135, "restaurant_name": "The Pour House", "latitude": 42.3484840393066, "is_closed": 1, "zip_code": "02115"}
{"cuisine": "American (Traditional), Burgers, Beer Bar", "star_rating": 3.0, "transactions": null, "restaurant_id": "DuT5BBmKRtcGYQzKkoEiZw", "longitude": -71.055392, "num_reviews": 322, "restaurant_name": "Cheers - Faneuil Hall", "latitude": 42.360056, "is_closed": 1, "zip_code": "02109"}
{"cuisine": "Mexican", "star_rating": 3.5, "transactions": "delivery, pickup", "restaurant_id": "ecubob5HjRKkci4wEuK3ow", "longitude": -71.125513, "num_reviews": 583, "restaurant_name": "Anna's Taqueria", "latitude": 42.341357, "is_closed": 1, "zip_code": "02446"}
{"cuisine": "Sports Bars, American (Traditional)", "star_rating": 3.5, "transactions": "delivery", "restaurant_id": "Cnmw5H0jwJI6mJb5xDDQtA", "longitude": -71.06098, "num_reviews": 352, "restaurant_name": "The Four's Restaurant & Sports Bar", "latitude": 42.36498, "is_closed": 1, "zip_code": "02114"}
{"cuisine": "Sports Bars, Breakfast & Brunch, Irish", "star_rating": 3.5, "transactions": "delivery", "restaurant_id": "dB7dauNiPa4Tx1aIcZGeog", "longitude": -71.0844268798828, "num_reviews": 361, "restaurant_name": "McGreevy's", "latitude": 42.348461151123, "is_closed": 1, "zip_code": "02115"}
{"cuisine": "Breakfast & Brunch", "star_rating": 3.5, "transactions": "pickup, delivery", "restaurant_id": "yx4IYpg9MGbrVqNdZwXX_A", "longitude": -71.09019, "num_reviews": 1937, "restaurant_name": "The Friendly Toast- Cambridge", "latitude": 42.36657, "is_closed": 1, "zip_code": "02139"}
{"cuisine": "Latin American, Italian, Cooking Classes", "star_rating": 4.0, "transactions": "pickup, delivery", "restaurant_id": "3w53096TZI65qMgxhuwc2A", "longitude": -71.0555801, "num_reviews": 474, "restaurant_name": "Taranta Cucina Meridionale", "latitude": 42.363031, "is_closed": 1, "zip_code": "02113"}
{"cuisine": "Pubs, Music Venues, American (Traditional)", "star_rating": 4.5, "transactions": "delivery", "restaurant_id": "ItZXR8qp_WC_v9zuSQGS9w", "longitude": -71.0993869, "num_reviews": 162, "restaurant_name": "Bull McCabe's Pub", "latitude": 42.3810112, "is_closed": 1, "zip_code": "02143"}
{"cuisine": "Pizza, Italian", "star_rating": 3.5, "transactions": "delivery", "restaurant_id": "ljBH1FoYNZ_Ubhfkqvs-Sw", "longitude": -71.1321027, "num_reviews": 324, "restaurant_name": "Regina Pizza", "latitude": 42.355996, "is_closed": 1, "zip_code": "02134"}
{"cuisine": "Pubs, Burgers, Sandwiches", "star_rating": 3.5, "transactions": "delivery", "restaurant_id": "qhz_ypl5rVzP-sJ-7t6ctw", "longitude": -71.1035370826721, "num_reviews": 310, "restaurant_name": "The Field", "latitude": 42.3657738363216, "is_closed": 1, "zip_code": "02139"}
{"cuisine": "Pool Halls, Dive Bars, American (Traditional)", "star_rating": 3.5, "transactions": null, "restaurant_id": "D-kkOr5VQhdP-FtBFJWUjQ", "longitude": -71.090659, "num_reviews": 187, "restaurant_name": "Flat Top Johnny's", "latitude": 42.366525, "is_closed": 1, "zip_code": "02139"}
{"cuisine": "Italian", "star_rating": 4.0, "transactions": null, "restaurant_id": "uiZq2qHtUgYPPOtXW47UTQ", "longitude": -71.068389, "num_reviews": 400, "restaurant_name": "Erbaluce", "latitude": 42.350149, "is_closed": 1, "zip_code": "02116"}
{"cuisine": "Japanese", "star_rating": 4.0, "transactions": "delivery", "restaurant_id": "ZIDpQv9y5UWTSE-01hOfVQ", "longitude": -71.05408, "num_reviews": 93, "restaurant_name": "Kamakura", "latitude": 42.3594, "is_closed": 1, "zip_code": "02109"}
{"cuisine": "Italian, Seafood, Bars", "star_rating": 4.0, "transactions": "delivery", "restaurant_id": "5rINmqRcMlJCBR3vwMKbtg", "longitude": -71.065805, "num_reviews": 539, "restaurant_name": "Cinquecento", "latitude": 42.342118, "is_closed": 1, "zip_code": "02118"}
{"cuisine": "American (Traditional), Pubs, Whiskey Bars", "star_rating": 2.5, "transactions": "delivery", "restaurant_id": "h6b_e9Umiau5osfScdR4Ww", "longitude": -71.0836099, "num_reviews": 626, "restaurant_name": "Whiskey's Food & Spirits", "latitude": 42.3486, "is_closed": 1, "zip_code": "02116"}
{"cuisine": "Japanese, Noodles", "star_rating": 4.0, "transactions": "delivery", "restaurant_id": "mCX9XzBLB1y5_OrFASv1mA", "longitude": -71.12179, "num_reviews": 145, "restaurant_name": "Love Art Udon", "latitude": 42.35143, "is_closed": 1, "zip_code": "02215"}
{"cuisine": "French, Wine Bars, Jazz & Blues", "star_rating": 3.5, "transactions": "delivery", "restaurant_id": "trHvcsE3xRS8YcbrDrnSmg", "longitude": -71.057466873432, "num_reviews": 445, "restaurant_name": "Les Zygomates", "latitude": 42.351162781091, "is_closed": 1, "zip_code": "02111"}
{"cuisine": "Pubs, American (New), Breakfast & Brunch", "star_rating": 4.0, "transactions": "delivery", "restaurant_id": "vdO-x0KEP_c-hFB37viK9w", "longitude": -71.13719, "num_reviews": 1102, "restaurant_name": "Deep Ellum", "latitude": 42.3539, "is_closed": 1, "zip_code": "02134"}
{"cuisine": "Tapas/Small Plates, Wine Bars, Cocktail Bars", "star_rating": 4.0, "transactions": "delivery", "restaurant_id": "C7FKNwSUlbUinT9cRSLXHA", "longitude": -71.0971361, "num_reviews": 1149, "restaurant_name": "Cuchi Cuchi", "latitude": 42.3634434, "is_closed": 1, "zip_code": "02139"}
{"cuisine": "Italian, Wine Bars, Desserts", "star_rating": 4.0, "transactions": "delivery", "restaurant_id": "MjpH-uP90jTUp_KqAOiBJg", "longitude": -71.0725, "num_reviews": 815, "restaurant_name": "Stella", "latitude": 42.33994, "is_closed": 1, "zip_code": "02118"}
{"cuisine": "American (New), Wine Bars", "star_rating": 3.5, "transactions": "delivery", "restaurant_id": "Ug6ngfzLT_cPzSttve1OzQ", "longitude": -71.08252, "num_reviews": 2277, "restaurant_name": "Top of the Hub", "latitude": 42.347121, "is_closed": 1, "zip_code": "02199"}
{"cuisine": "Cocktail Bars, American (Traditional), Tapas/Small Plates", "star_rating": 4.0, "transactions": "delivery", "restaurant_id": "A4js3H3Icd45DaaqfD5dQw", "longitude": -71.0926888883114, "num_reviews": 120, "restaurant_name": "The Automatic Food & Drink", "latitude": 42.3669726401567, "is_closed": 1, "zip_code": "02139"}
{"cuisine": "American (New)", "star_rating": 4.5, "transactions": null, "restaurant_id": "WkjIWu8rIpAAUhnqsuik9w", "longitude": -71.131067, "num_reviews": 189, "restaurant_name": "The Table at Season to Taste", "latitude": 42.398327, "is_closed": 1, "zip_code": "02140"}
{"cuisine": "Bars, Burgers, French", "star_rating": 3.0, "transactions": "delivery", "restaurant_id": "e9H_iMXVqdcv9oHFCDJagA", "longitude": -71.0813006, "num_reviews": 330, "restaurant_name": "Bar Boulud - Boston", "latitude": 42.3487981, "is_closed": 1, "zip_code": "02199"}
{"cuisine": "Ice Cream & Frozen Yogurt, Juice Bars & Smoothies, Chocolatiers & Shops", "star_rating": 3.0, "transactions": null, "restaurant_id": "7L0x5mPmA_S4mYhu8DnzZw", "longitude": -71.118922, "num_reviews": 100, "restaurant_name": "Emack & Bolio's Ice Cream", "latitude": 42.388983, "is_closed": 1, "zip_code": "02140"}
{"cuisine": "Latin American, Breakfast & Brunch, Tapas/Small Plates", "star_rating": 3.5, "transactions": "pickup, delivery", "restaurant_id": "6GnCv4YXEvirUy7ZQnyYoQ", "longitude": -71.069167, "num_reviews": 1135, "restaurant_name": "Masa", "latitude": 42.346833, "is_closed": 1, "zip_code": "02116"}
{"cuisine": "Wine Bars, Steakhouses, Seafood", "star_rating": 4.0, "transactions": "delivery", "restaurant_id": "AG1ETqbneinRRJUeA8PfSA", "longitude": -71.06805379594, "num_reviews": 679, "restaurant_name": "Flemings Prime Steakhouse & Wine Bar", "latitude": 42.350696773753, "is_closed": 1, "zip_code": "02116"}
{"cuisine": "American (Traditional)", "star_rating": 2.5, "transactions": "delivery", "restaurant_id": "xNY7FaGLqXe5opq1hNEFtA", "longitude": -71.0977787, "num_reviews": 73, "restaurant_name": "Fenmore Grill", "latitude": 42.3486064, "is_closed": 1, "zip_code": "02215"}
{"cuisine": "Italian", "star_rating": 3.5, "transactions": "pickup, delivery", "restaurant_id": "j7CMOTyf3WHs8hmbpqiL4A", "longitude": -71.0705032348633, "num_reviews": 176, "restaurant_name": "Artu", "latitude": 42.3585929870605, "is_closed": 1, "zip_code": "02114"}
{"cuisine": "Bars, American (Traditional)", "star_rating": 3.0, "transactions": "delivery", "restaurant_id": "6UnIw-BrFyNyrDPteYVN5A", "longitude": -71.0987616, "num_reviews": 529, "restaurant_name": "Bukowski Tavern", "latitude": 42.373585, "is_closed": 1, "zip_code": "02139"}
{"cuisine": "American (New), Burgers, Cocktail Bars", "star_rating": 4.0, "transactions": "delivery, pickup", "restaurant_id": "-pK1SR3blPDEzYKwXk4L5Q", "longitude": -71.0750068, "num_reviews": 599, "restaurant_name": "Coda", "latitude": 42.3462394, "is_closed": 1, "zip_code": "02116"}
{"cuisine": "Delis, Vietnamese, Sandwiches", "star_rating": 4.0, "transactions": "delivery", "restaurant_id": "rc23Eq68aeCsEdYaK1OMiA", "longitude": -71.062741050927, "num_reviews": 437, "restaurant_name": "New Saigon Sandwich", "latitude": 42.351176193839, "is_closed": 1, "zip_code": "02111"}
{"cuisine": "Ice Cream & Frozen Yogurt", "star_rating": 4.0, "transactions": "delivery", "restaurant_id": "tIcBn4PgxCPabDyueTthzg", "longitude": -71.1533080793775, "num_reviews": 124, "restaurant_name": "Abbott's Frozen Custard", "latitude": 42.3489680886539, "is_closed": 1, "zip_code": "02135"}
{"cuisine": "Pubs, American (Traditional), Irish", "star_rating": 3.5, "transactions": "pickup, delivery", "restaurant_id": "CFgiRwdrG5ENkguBsp2jJg", "longitude": -71.0881103, "num_reviews": 113, "restaurant_name": "Conor Larkins Grill & Tap", "latitude": 42.3408864, "is_closed": 1, "zip_code": "02115"}
{"cuisine": "Bars, American (New), Gastropubs", "star_rating": 3.0, "transactions": "delivery, pickup", "restaurant_id": "sYTds-4udva4tjxjOToiCA", "longitude": -71.1002261164867, "num_reviews": 281, "restaurant_name": "Bar Louie", "latitude": 42.3457824742608, "is_closed": 1, "zip_code": "02215"}
{"cuisine": "Cocktail Bars, American (New)", "star_rating": 4.0, "transactions": "delivery", "restaurant_id": "V3gTJw0sjXvXKMRt3vCzmg", "longitude": -71.09842, "num_reviews": 86, "restaurant_name": "Wit's End", "latitude": 42.37332, "is_closed": 1, "zip_code": "02139"}
{"cuisine": "Chicken Shop", "star_rating": 3.5, "transactions": "delivery, pickup", "restaurant_id": "znkU8_QJ4Dksd8XUVjXBcg", "longitude": -71.046872, "num_reviews": 183, "restaurant_name": "Fuku Boston Seaport", "latitude": 42.353272, "is_closed": 1, "zip_code": "02210"}
{"cuisine": "French, American (New), Cocktail Bars", "star_rating": 4.0, "transactions": "pickup, delivery", "restaurant_id": "5TsjdwNt10gxGChQtGGpdg", "longitude": -71.0673901926598, "num_reviews": 2054, "restaurant_name": "Gaslight", "latitude": 42.3409677894859, "is_closed": 1, "zip_code": "02118"}
{"cuisine": "Bars, Southern, Breakfast & Brunch", "star_rating": 4.0, "transactions": "delivery, pickup", "restaurant_id": "YOzva5nTtkQhyPrHErGn7Q", "longitude": -71.1082798987627, "num_reviews": 196, "restaurant_name": "The Frogmore", "latitude": 42.3225067822998, "is_closed": 1, "zip_code": "02130"}
{"cuisine": "Breakfast & Brunch", "star_rating": 3.5, "transactions": "delivery, pickup", "restaurant_id": "yx4IYpg9MGbrVqNdZwXX_A", "longitude": -71.09019, "num_reviews": 1937, "restaurant_name": "The Friendly Toast- Cambridge", "latitude": 42.36657, "is_closed": 1, "zip_code": "02139"}
{"cuisine": "Pubs, Burgers, Sandwiches", "star_rating": 3.5, "transactions": "delivery", "restaurant_id": "qhz_ypl5rVzP-sJ-7t6ctw", "longitude": -71.1035370826721, "num_reviews": 310, "restaurant_name": "The Field", "latitude": 42.3657738363216, "is_closed": 1, "zip_code": "02139"}
{"cuisine": "Lounges, Music Venues, Dive Bars", "star_rating": 3.5, "transactions": "delivery", "restaurant_id": "AjUWObAduLvVOQU_HHI9iA", "longitude": -71.1051712185144, "num_reviews": 220, "restaurant_name": "Cantab Lounge", "latitude": 42.366209551692, "is_closed": 1, "zip_code": "02139"}
{"cuisine": "American (Traditional), Gastropubs", "star_rating": 3.5, "transactions": "delivery", "restaurant_id": "kxSce-ipaV5GwiN8Ntq2rg", "longitude": -71.0616226196289, "num_reviews": 587, "restaurant_name": "Stoddard's Fine Food & Ale", "latitude": 42.3552131652832, "is_closed": 1, "zip_code": "02111"}
{"cuisine": "Italian", "star_rating": 3.5, "transactions": "delivery", "restaurant_id": "0qdUCUn5GwS3PH5tJNuc-g", "longitude": -71.0756005346775, "num_reviews": 335, "restaurant_name": "Dante", "latitude": 42.3665857315063, "is_closed": 1, "zip_code": "02142"}
{"cuisine": "Coffee & Tea, Sandwiches, Breakfast & Brunch", "star_rating": 3.5, "transactions": "pickup, delivery", "restaurant_id": "AHaaxF5ERCuLDvcC6xnQJQ", "longitude": -71.0748283385857, "num_reviews": 148, "restaurant_name": "Pret A Manger", "latitude": 42.3508484057599, "is_closed": 1, "zip_code": "02116"}
{"cuisine": "Coffee & Tea, Sandwiches, Salad", "star_rating": 3.5, "transactions": "delivery, pickup", "restaurant_id": "N48l2ZQ_rGsQqCwUsQG7-w", "longitude": -71.05953, "num_reviews": 83, "restaurant_name": "Pret a Manger", "latitude": 42.35499, "is_closed": 1, "zip_code": "02110"}
{"cuisine": "Coffee & Tea, Breakfast & Brunch, Sandwiches", "star_rating": 3.5, "transactions": "pickup, delivery", "restaurant_id": "ft-u7hmJk2b-UPdZrL55fw", "longitude": -71.0558673112708, "num_reviews": 14, "restaurant_name": "Pret A Manger", "latitude": 42.3533370576595, "is_closed": 1, "zip_code": "02110"}
{"cuisine": "Coffee & Tea, Breakfast & Brunch, Sandwiches", "star_rating": 3.0, "transactions": "pickup, delivery", "restaurant_id": "WBNP3SdePh1YSTfVLjVKyw", "longitude": -71.05561517, "num_reviews": 2, "restaurant_name": "Pret A Manger", "latitude": 42.35195567, "is_closed": 1, "zip_code": "02110"}
{"cuisine": "Coffee & Tea, Sandwiches, Breakfast & Brunch, Cafes", "star_rating": 4.0, "transactions": "delivery, pickup", "restaurant_id": "6Qqz3eQVLJDRELE2Grm-_w", "longitude": -71.05482, "num_reviews": 111, "restaurant_name": "Pret A Manger", "latitude": 42.35542, "is_closed": 1, "zip_code": "02110"}
{"cuisine": "Cafes", "star_rating": 3.5, "transactions": null, "restaurant_id": "6Oq2nV3z-DAlgCHp4bZuHg", "longitude": -71.1074374232705, "num_reviews": 25, "restaurant_name": "Pret A Manger", "latitude": 42.3388815055283, "is_closed": 1, "zip_code": "02215"}
{"cuisine": "Coffee & Tea, Breakfast & Brunch, Sandwiches", "star_rating": 4.5, "transactions": "pickup, delivery", "restaurant_id": "Xka7oeVkX_ovx7WhdoedNA", "longitude": -71.10769, "num_reviews": 12, "restaurant_name": "Pret a Manger", "latitude": 42.339, "is_closed": 1, "zip_code": "02215"}
{"cuisine": "Bars, American (New)", "star_rating": 3.5, "transactions": "delivery", "restaurant_id": "nlnWODemnfzut10tzC5x3A", "longitude": -71.0740553750509, "num_reviews": 662, "restaurant_name": "Post 390", "latitude": 42.3488638811714, "is_closed": 1, "zip_code": "02116"}
{"cuisine": "Breakfast & Brunch, French, Sandwiches", "star_rating": 4.5, "transactions": "pickup, delivery", "restaurant_id": "mJ6wNXXsc5ettMVhrLMv-Q", "longitude": -71.0597, "num_reviews": 92, "restaurant_name": "Popover King", "latitude": 42.36384, "is_closed": 1, "zip_code": "02114"}
{"cuisine": "American (New), Desserts, Wine Bars", "star_rating": 4.0, "transactions": "delivery", "restaurant_id": "Nnz7GwVA51l5uCijP5UAHw", "longitude": -71.1209747, "num_reviews": 76, "restaurant_name": "Parsnip Restaurant & Lounge", "latitude": 42.3725045, "is_closed": 1, "zip_code": "02138"}
{"cuisine": "Irish, Pubs", "star_rating": 4.0, "transactions": "delivery", "restaurant_id": "xjzA4zoZdTpDzENqdd_Plg", "longitude": -71.1072737, "num_reviews": 117, "restaurant_name": "O'Leary's Irish Pub and Restaurant", "latitude": 42.3462568, "is_closed": 1, "zip_code": "02446"}
{"cuisine": "Thai", "star_rating": 3.5, "transactions": "delivery, pickup", "restaurant_id": "rGEsouKJywKQLYmvD2H_1Q", "longitude": -71.07301, "num_reviews": 146, "restaurant_name": "House of Siam", "latitude": 42.34291, "is_closed": 1, "zip_code": "02118"}
{"cuisine": "Bars, American (Traditional), Seafood", "star_rating": 2.5, "transactions": "pickup, delivery", "restaurant_id": "Rjmow52esfT1_eI6tfCHDQ", "longitude": -71.0542120956661, "num_reviews": 472, "restaurant_name": "Dick's Last Resort", "latitude": 42.3604098407367, "is_closed": 1, "zip_code": "02109"}
{"cuisine": "Burgers", "star_rating": 3.0, "transactions": "delivery", "restaurant_id": "y-GXo1JYDFQwObUXrpxjQg", "longitude": -71.102731, "num_reviews": 20, "restaurant_name": "Craigie Burger", "latitude": 42.344685, "is_closed": 1, "zip_code": "02215"}
{"cuisine": "Singaporean", "star_rating": 4.5, "transactions": "delivery, pickup", "restaurant_id": "uL7PDSmLxPPRMtFjENn9rQ", "longitude": -71.132788, "num_reviews": 66, "restaurant_name": "Chic Chick", "latitude": 42.352893, "is_closed": 1, "zip_code": "02134"}
{"cuisine": "Bars, American (New), Seafood", "star_rating": 3.0, "transactions": "pickup, delivery", "restaurant_id": "mtG5TI0nPbrty2zf8Gz7Jg", "longitude": -71.05106, "num_reviews": 283, "restaurant_name": "Barlow's Restaurant", "latitude": 42.34653, "is_closed": 1, "zip_code": "02210"}
{"cuisine": "Korean, Barbeque", "star_rating": 3.5, "transactions": "delivery, pickup", "restaurant_id": "MRR_DEUfKIxWdnQJmzxWhA", "longitude": -71.125279, "num_reviews": 108, "restaurant_name": "Misono Grill", "latitude": 42.352353, "is_closed": 1, "zip_code": "02215"}
{"cuisine": "Japanese Curry", "star_rating": 3.5, "transactions": "delivery, pickup", "restaurant_id": "9ylWOjNH4ldduzaF0FFylA", "longitude": -71.125425, "num_reviews": 6, "restaurant_name": "Tonkatsu King", "latitude": 42.352469, "is_closed": 1, "zip_code": "02134"}
{"cuisine": "Vegetarian, Vegan, Cafes", "star_rating": 4.5, "transactions": "delivery", "restaurant_id": "AS6PcESp0vTPT53RDUFQiQ", "longitude": -71.1372809, "num_reviews": 315, "restaurant_name": "Whole Heart Provisions", "latitude": 42.3537846, "is_closed": 1, "zip_code": "02134"}
{"cuisine": "Desserts, Caterers, Bakeries", "star_rating": 5.0, "transactions": "pickup, delivery", "restaurant_id": "wyNFqkgseU6yG969FSzO2Q", "longitude": -71.1380332, "num_reviews": 29, "restaurant_name": "Brit Bakery", "latitude": 42.3859093, "is_closed": 1, "zip_code": "02138"}
{"cuisine": "Spanish, Coffee & Tea, Basque", "star_rating": 3.5, "transactions": "delivery", "restaurant_id": "22o_VdMfKA1jjemWwbeujg", "longitude": -71.11547, "num_reviews": 182, "restaurant_name": "Cafe Pamplona", "latitude": 42.37175, "is_closed": 1, "zip_code": "02138"}
{"cuisine": "Seafood, Bars", "star_rating": 3.5, "transactions": "delivery", "restaurant_id": "hW7KINz9iwwmtuiDUNgoPw", "longitude": -71.1234795496904, "num_reviews": 352, "restaurant_name": "Legal Sea Foods", "latitude": 42.3720188923243, "is_closed": 1, "zip_code": "02138"}
{"cuisine": "American (Traditional), Lounges, Sports Bars", "star_rating": 3.5, "transactions": "delivery, pickup", "restaurant_id": "uMQDgdKA1prI6NhjPo3Njg", "longitude": -71.054106, "num_reviews": 247, "restaurant_name": "Battery Park Bar & Patio", "latitude": 42.357395, "is_closed": 1, "zip_code": "02110"}
{"cuisine": "Japanese, Sushi Bars", "star_rating": 3.5, "transactions": "pickup, delivery", "restaurant_id": "sNVX7k89s8L-X4oSN0NIHA", "longitude": -71.05431, "num_reviews": 254, "restaurant_name": "Sakura-Bana", "latitude": 42.35798, "is_closed": 1, "zip_code": "02109"}
{"cuisine": "Mediterranean, Salad, Pizza", "star_rating": 3.5, "transactions": "delivery, pickup", "restaurant_id": "6dj0t8vx2kdskDMhChLSHQ", "longitude": -71.0588412149259, "num_reviews": 233, "restaurant_name": "Uno Due Go", "latitude": 42.3544441930568, "is_closed": 1, "zip_code": "02110"}
{"cuisine": "Breakfast & Brunch, Bakeries", "star_rating": 3.5, "transactions": null, "restaurant_id": "r4s5Uv-09mXW3tvyR9ZI5g", "longitude": -71.06408, "num_reviews": 6, "restaurant_name": "Swissbakers", "latitude": 42.3665417, "is_closed": 1, "zip_code": "02114"}
{"cuisine": "Burgers, Coffee & Tea, Sandwiches", "star_rating": 3.0, "transactions": "pickup", "restaurant_id": "K7jF_DHzb6MtGN9vj7zbPg", "longitude": -71.0552889, "num_reviews": 113, "restaurant_name": "Cobblestone Cafe", "latitude": 42.3629314, "is_closed": 1, "zip_code": "02113"}
{"cuisine": "Cafes", "star_rating": 4.0, "transactions": "delivery", "restaurant_id": "0UY6UXEedB2_M7vK6pYISQ", "longitude": -71.099228, "num_reviews": 379, "restaurant_name": "Neighborhoods Coffee & Crepes", "latitude": 42.343162, "is_closed": 1, "zip_code": "02215"}
{"cuisine": "Italian, Chicken Wings, Sandwiches", "star_rating": 3.5, "transactions": "delivery, pickup", "restaurant_id": "6STg6HGBeQ5DV-T9TDpRdA", "longitude": -71.07027, "num_reviews": 22, "restaurant_name": "Blackjack Pasta Kitchen", "latitude": 42.34134, "is_closed": 1, "zip_code": "02118"}
{"cuisine": "Polish, Hungarian, Wine Bars", "star_rating": 4.5, "transactions": "delivery", "restaurant_id": "j4GcfVzq1BCXGoPtNGOtgg", "longitude": -71.05712, "num_reviews": 448, "restaurant_name": "Cafe Polonia", "latitude": 42.32878, "is_closed": 1, "zip_code": "02127"}
{"cuisine": "American (New)", "star_rating": 4.0, "transactions": "delivery", "restaurant_id": "eFA7z513ckKzfGPROQv0Ww", "longitude": -71.05291, "num_reviews": 119, "restaurant_name": "Backyard Betty's", "latitude": 42.34053, "is_closed": 1, "zip_code": "02127"}
{"cuisine": "Pubs, Irish", "star_rating": 3.0, "transactions": "pickup, delivery", "restaurant_id": "dv56VSw7tClqOuTYUrOwJw", "longitude": -71.0996475219727, "num_reviews": 547, "restaurant_name": "The Asgard", "latitude": 42.3624687194824, "is_closed": 1, "zip_code": "02139"}
{"cuisine": "Irish, Irish Pub, American (Traditional)", "star_rating": 3.0, "transactions": "delivery", "restaurant_id": "y6K0p0zC7pc2Mc0IjKTJ9Q", "longitude": -71.091779, "num_reviews": 372, "restaurant_name": "The Kinsale", "latitude": 42.329775, "is_closed": 1, "zip_code": "02108"}